satname,norad_id,inclination_deg,eccentricity,mean_motion_rev_per_day,perigee_km,apogee_km,l1,l2
STARLINK-1297,45395,53.0546,0.0001303,15.40938491,442.4493788738173,444.22705531539214,1 45395U 20019AM  26023.66670139  .00645823  00000+0  14385-1 0  9998,2 45395  53.0546 346.5872 0001303 110.9942 233.5808 15.40938491  5748
STARLINK-1307,45397,53.0578,9.86e-05,15.4427193,432.8465729915706,434.1898313974434,1 45397U 20019AP  26023.66670139  .01055586  00000+0  20759-1 0  9994,2 45397  53.0578 346.0722 0000986 103.2354 185.9431 15.44271930  5296
STARLINK-1255,45399,53.0479,0.0006271,15.43078615,432.7557480279502,441.30332990111856,1 45399U 20019AR  26023.22287574  .00029695  00000+0  66797-3 0  9990,2 45399  53.0479 320.1292 0006271  80.6434 279.5280 15.43078615323393
STARLINK-1260,45404,53.1279,0.0001279,15.23079268,495.67980915082535,497.43835640880025,1 45404U 20019AW  26023.66670139  .01527245  00000+0  58289-1 0  9998,2 45404  53.1279 338.2248 0001279  82.0386 194.4243 15.23079268  5793
STARLINK-1263,45405,53.1265,0.0001589,15.2285116,496.1530748776577,498.33807145941046,1 45405U 20019AX  26023.66670139  .00938399  00000+0  36572-1 0  9995,2 45405  53.1265 338.2314 0001589  87.6598 266.5008 15.22851160  5746
STARLINK-1265,45406,53.1236,0.0001676,15.22198212,498.0589224926716,500.3642097320326,1 45406U 20019AY  26023.66670139  .00996433  00000+0  39389-1 0  9998,2 45406  53.1236 338.2885 0001676  93.6214 188.8249 15.22198212  5551
STARLINK-1278,45408,53.0507,0.0005794,15.46241254,423.79001170674564,431.67665424859933,1 45408U 20019BA  26023.61676516  .00180538  00000+0  35355-2 0  9991,2 45408  53.0507 347.0788 0005794  23.0548 337.0717 15.46241254322961
STARLINK-1296,45412,53.1175,0.0001473,15.20806275,502.39366106504804,504.4209640195231,1 45412U 20019BE  26023.66670139  .00825113  00000+0  34474-1 0  9991,2 45412  53.1175 338.0799 0001473  76.9179 300.3684 15.20806275  5558
STARLINK-1298,45413,53.0424,0.000889,15.74912185,338.9043177298936,350.8578438775621,1 45413U 20019BF  26023.66670139  .00222161  00000+0  14331-2 0  9997,2 45413  53.0424 281.4911 0008890 132.3873 308.5996 15.74912185  5968
STARLINK-1309,45414,53.0703,0.0001352,15.21579184,500.1466563149479,502.00679570646116,1 45414U 20019BG  26023.66670139  .00132081  00000+0  56932-2 0  9992,2 45414  53.0703 338.2880 0001352  88.8552  84.7410 15.21579184  5795
STARLINK-1316,45415,53.1233,0.0001748,15.22196492,498.01458536526115,500.4189082351422,1 45415U 20019BH  26023.66670139  .00984974  00000+0  38976-1 0  9996,2 45415  53.1233 338.2882 0001748  93.3725 309.0475 15.22196492  5803
STARLINK-1318,45416,53.0435,0.0004954,15.81775822,322.09771357598584,328.73959651900714,1 45416U 20019BJ  26023.66670139  .00274092  00000+0  12928-2 0  9990,2 45416  53.0435 268.7437 0004954 157.4342 313.3182 15.81775822  5931
STARLINK-1286,45417,53.0519,0.00026,15.47237969,423.04140440507854,426.5789369338263,1 45417U 20019BK  26023.18683752  .00042135  00000+0  81835-3 0  9998,2 45417  53.0519 348.7771 0002600  31.9647 328.1517 15.47237969323177
STARLINK-1308,45419,53.0563,0.0002039,15.33029612,465.3836775280506,468.17503441801637,1 45419U 20019BM  26023.66670139  .00419021  00000+0  12252-1 0  9995,2 45419  53.0563   6.4219 0002039  84.6268 355.5749 15.33029612  5697
STARLINK-1329,45531,53.0561,0.0007306,15.46602998,421.7004549618068,431.6436419434067,1 45531U 20025A   26023.48368827  .00090071  00000+0  17661-2 0  9995,2 45531  53.0561 298.7320 0007306  94.7733 265.4108 15.46602998318435
STARLINK-1338,45532,53.055,0.0005289,15.4521065,427.1579639313695,434.3604143202274,1 45532U 20025B   26023.18441505  .00046660  00000+0  96967-3 0  9990,2 45532  53.0550 303.1230 0005289 108.7840 251.3740 15.45210650318343
STARLINK-1350,45535,53.0714,0.0002023,15.34837434,460.0197639487742,462.78704199581625,1 45535U 20025E   26023.61863823  .00016865  00000+0  50215-3 0  9992,2 45535  53.0714 244.6118 0002023 116.5152 243.6057 15.34837434319235
STARLINK-1362,45538,53.0541,0.0001016,15.06436035,546.3975138620244,547.8047222476143,1 45538U 20025H   26023.21949338  .00026087  00000+0  17621-2 0  9997,2 45538  53.0541 310.4620 0001016  87.0980 273.0125 15.06436035318242
STARLINK-1368,45540,53.0533,0.0001659,15.0668445,545.1911260994157,547.4886675337793,1 45540U 20025K   26023.48941795  .00090695  00000+0  59838-2 0  9990,2 45540  53.0533 309.5268 0001659  78.6452 281.4724 15.06684450318273
STARLINK-1371,45542,53.0552,0.0003727,15.40365163,442.4877649346963,447.5737541826711,1 45542U 20025M   26023.49401177  .00059324  00000+0  14454-2 0  9997,2 45542  53.0552 304.2442 0003727 105.3133 254.8283 15.40365163318352
STARLINK-1372,45543,53.0532,0.0001367,15.06402443,546.257376380915,548.1507646295922,1 45543U 20025N   26023.03249897  .00011280  00000+0  77491-3 0  9997,2 45543  53.0532 311.5814 0001367  71.0810 289.0328 15.06402443317303
STARLINK-1373,45544,53.0549,0.0003858,15.41725699,438.38515162908516,443.64681006910905,1 45544U 20025P   26023.19595879  .00042031  00000+0  98390-3 0  9998,2 45544  53.0549 306.0571 0003858 111.0505 249.0912 15.41725699318300
STARLINK-1294,45551,53.0363,0.0004319,15.79663419,328.49569212258757,334.2913846016245,1 45551U 20025W   26023.66670139  .00239298  00000+0  12493-2 0  9993,2 45551  53.0363 204.4542 0004319 257.9270  92.9416 15.79663419  5986
STARLINK-1325,45554,53.037,0.0005093,16.03569071,261.16083621437065,267.9270710337332,1 45554U 20025Z   26023.72486288  .00676412  22935-3  10497-2 0  9993,2 45554  53.0370 190.7916 0005093 229.5620 130.4967 16.03569071319976
STARLINK-1327,45555,53.0544,0.0004017,15.44482334,430.16356267319406,435.63554944233147,1 45555U 20025AA  26023.36956464  .00056569  00000+0  12018-2 0  9993,2 45555  53.0544 283.8863 0004017 113.0778 247.0651 15.44482334318627
STARLINK-1356,45564,53.0609,0.0001117,15.33364265,465.0189296676572,466.54786148402854,1 45564U 20025AK  26023.66670139  .01117978  00000+0  31182-1 0  9993,2 45564  53.0609 287.1818 0001117  90.0172 219.7045 15.33364265  5790
STARLINK-1357,45565,53.0565,0.0005575,15.4571678,425.4776389461649,433.0679008395955,1 45565U 20025AL  26023.66558977  .00029675  00000+0  61061-3 0  9995,2 45565  53.0565 254.2766 0005575 115.0049 245.1536 15.45716780319075
STARLINK-1361,45567,53.0553,0.0001658,15.29350424,476.61621789829405,478.8896309972406,1 45567U 20025AN  26023.66670139  .01689181  00000+0  52890-1 0  9995,2 45567  53.0553 287.5768 0001658  90.9334 278.4084 15.29350424  5543
STARLINK-1363,45568,53.0474,9.87e-05,15.63609132,376.5750844941376,377.90859627722875,1 45568U 20025AP  26023.64708108  .00078997  00000+0  83190-3 0  9997,2 45568  53.0474 260.6537 0000987  49.7904 310.3196 15.63609132318976
STARLINK-1366,45569,53.048,0.0001024,15.63324677,377.3694315503317,378.7531009552604,1 45569U 20025AQ  26023.07408524  .00067692  00000+0  72266-3 0  9996,2 45569  53.0480 264.0831 0001024  91.2084 268.9047 15.63324677318873
STARLINK-1376,45570,53.1581,0.0001291,15.29339628,476.9000898433769,478.6702889526796,1 45570U 20025AR  26023.43133787 -.00000908  00000+0 -19152-4 0  9999,2 45570  53.1581 287.7533 0001291  96.9941 263.1206 15.29339628318574
STARLINK-1320,45572,53.0529,0.0006461,15.57888228,389.394551625478,398.14520969666864,1 45572U 20025AT  26023.11211223  .00056694  00000+0  74683-3 0  9998,2 45572  53.0529 209.0014 0006461 179.3071 180.7951 15.57888228319671
STARLINK-1321,45573,53.0526,0.0003704,15.40905142,440.9099282652296,445.96335001710577,1 45573U 20025AU  26023.07099593  .00032263  00000+0  77934-3 0  9996,2 45573  53.0526 275.5401 0003704 109.6547 250.4857 15.40905142318416
STARLINK-1331,45578,53.0537,0.0001204,15.17444593,512.7371889050246,514.3967112161981,1 45578U 20025AZ  26023.66670139  .02016727  00000+0  89547-1 0  9997,2 45578  53.0537 278.2915 0001204  92.1199 125.0183 15.17444593  5790
STARLINK-1333,45580,53.1536,0.0001175,15.29360769,476.91644427988285,478.52757114669475,1 45580U 20025BB  26023.16737925  .00013548  00000+0  48088-3 0  9995,2 45580  53.1536 289.2333 0001175  93.7069 266.4066 15.29360769318533
STARLINK-1335,45581,53.0525,0.0001865,15.06425454,545.841983235945,548.4251091496753,1 45581U 20025BC  26023.41490964  .00019291  00000+0  13095-2 0  9993,2 45581  53.0525 279.8656 0001865  90.6270 269.4933 15.06425454318680
STARLINK-1337,45582,53.0557,0.0001424,15.24378218,491.6747595832994,493.6315606208973,1 45582U 20025BD  26023.66670139  .01066639  00000+0  39842-1 0  9991,2 45582  53.0557 277.8217 0001424  94.9108 183.5180 15.24378218  5694
STARLINK-1347,45586,53.0501,0.0005608,15.44511117,428.99535512743296,436.63451881994297,1 45586U 20025BH  26023.33611882  .00028746  00000+0  61660-3 0  9990,2 45586  53.0501 246.9335 0005608 120.1904 239.9658 15.44511117319131
STARLINK-1364,45589,53.0537,0.0001732,15.29835648,475.115985686004,477.49036376252843,1 45589U 20025BL  26023.66670139  .01756972  00000+0  53979-1 0  9991,2 45589  53.0537 277.5087 0001732 108.4124 311.5793 15.29835648  5695
STARLINK-1365,45590,53.0548,0.000166,15.35714123,457.6652436292725,459.9351067714397,1 45590U 20025BM  26023.66670139  .00250728  00000+0  68925-2 0  9998,2 45590  53.0548 307.1902 0001660  81.0051  53.9619 15.35714123  5808
STARLINK-1443,45660,53.055,7.3e-05,15.06402822,546.6973591148708,547.7084587415738,1 45660U 20035D   26023.10986447  .00005790  00000+0  40723-3 0  9992,2 45660  53.0550 271.2333 0000730  76.7425 283.3646 15.06402822311864
STARLINK-1446,45663,53.0244,0.0004176,15.40748748,441.0493661812279,446.74713002044246,1 45663U 20035G   26023.24251214  .00031161  00000+0  75699-3 0  9998,2 45663  53.0244 214.9158 0004176 143.0557 217.0735 15.40748748312668
STARLINK-1448,45665,53.0558,0.0001803,15.29094926,477.2803535371604,479.75286282827074,1 45665U 20035J   26023.66670139  .01689655  00000+0  53319-1 0  9998,2 45665  53.0558 267.6065 0001803  80.8540 262.0446 15.29094926  5795
